PROX-1                  
1 44339U 19036A   26195.56427031  .00006514  00000+0  61082-3 0  9998
2 44339  23.9954 291.2841 0005951   1.0168 359.0343 14.91240089377563
NPSAT1                  
1 44340U 19036B   26195.92820651  .00002959  00000+0  39563-3 0  9993
2 44340  23.9996  37.0454 0007418 163.4955 196.5783 14.74820760376599
FORMOSAT 7-3            
1 44343U 19036E   26195.80707908  .00002587  00000+0  13444-3 0  9999
2 44343  24.0000 348.4178 0000144 225.7106 134.3386 15.09992955387429
FORMOSAT 7-1            
1 44349U 19036L   26195.11697589  .00001323  00000+0  87353-4 0  9990
2 44349  23.9965 210.8268 0000992 119.0501 241.0100 14.96609694388690
FORMOSAT 7-4            
1 44350U 19036M   26195.53960159  .00001372  00000+0  91577-4 0  9991
2 44350  23.9978 270.0878 0001207 134.1754 225.8846 14.96608631388179
FORMOSAT 7-2            
1 44351U 19036N   26195.56196773  .00001502  00000+0  10275-3 0  9998
2 44351  23.9992 324.2509 0000725 126.1449 233.9119 14.96607917387690
FORMOSAT 7-6            
1 44353U 19036Q   26195.56155075  .00001427  00000+0  96307-4 0  9997
2 44353  23.9966 145.0607 0001306  68.3395 291.7245 14.96611257385922
FORMOSAT 7-5            
1 44358U 19036V   26195.00559900  .00001521  00000+0  10448-3 0  9992
2 44358  23.9985  87.5620 0000433 125.4285 234.6256 14.96589152386372
METEOR-M2 2             
1 44387U 19038A   26195.99183399 -.00000152  00000+0 -45727-4 0  9999
2 44387  98.9152 183.6894 0000756   3.0534 357.0649 14.24372524365253
GLOBAL-4                
1 44499U 19054E   26195.38448459  .00038030  00000+0  35030-3 0  9994
2 44499  45.0060  79.1632 0005251 191.4185 168.6595 15.67020519384626
ZY-1 02D                
1 44528U 19059A   26195.95312497 -.00000186  00000+0 -49079-4 0  9999
2 44528  98.6719 257.5073 0003137 300.4075  59.6800 14.35267370358324
TAURUS-1 (JINNIUZUO 1)  
1 44530U 19059C   26195.97210693  .00003990  00000+0  63873-3 0  9990
2 44530  98.6429   2.5323 0008002 216.1749 143.8916 14.72370325362738
ZHUHAI-1 03B            
1 44536U 19060C   26195.98521766  .00020791  00000+0  30389-3 0  9999
2 44536  97.5550 355.2883 0008397 206.1157 153.9675 15.55623340380649
ZHUHAI-1 03D            
1 44538U 19060E   26195.97383363  .00020195  00000+0  34471-3 0  9993
2 44538  97.5396 347.1538 0007464 191.8585 168.2492 15.51332971380385
ZHUHAI-1 03E            
1 44539U 19060F   26195.96165612  .00010490  00000+0  24879-3 0  9996
2 44539  97.5641 346.8945 0004401 277.1886  82.8860 15.41917075380043
GAOFEN-7                
1 44703U 19072A   26195.95473455  .00002032  00000+0  93174-4 0  9996
2 44703  97.5706 256.6882 0017462 304.8613  55.0980 15.21513365371860
JILIN-1 GAOFEN 2A       
1 44777U 19075A   26195.88621785  .00008114  00000+0  20541-3 0  9997
2 44777  97.4968 280.3364 0005210 356.1425   3.9780 15.40009241369140
NINGXIA-1 1             
1 44779U 19076A   26195.97208403 -.00000069  00000+0  39456-4 0  9996
2 44779  45.0066  55.6855 0011554 288.6118  71.3461 14.02041982341751
NINGXIA-1 5             
1 44783U 19076E   26195.98441885 -.00000136  00000+0 -39354-5 0  9999
2 44783  45.0065  54.9631 0011419 279.4342  80.5202 14.02089780341670
KL-ALPHA A              
1 44785U 19077A   26196.01205972  .00000177  00000+0  23480-3 0  9996
2 44785  88.9233 219.5214 0012428  37.2525 322.9489 13.56046284329503
CARTOSAT-3              
1 44804U 19081A   26195.95162007  .00001757  00000+0  86599-4 0  9992
2 44804  97.4298 257.3696 0013084  59.9242 300.3288 15.19183501367684
JILIN-1 GAOFEN 2B       
1 44836U 19086A   26195.91239667  .00003306  00000+0  15198-3 0  9993
2 44836  97.4875 267.7330 0013209 216.8865 143.1463 15.20997513364700
TIANQIN 1 (CAS-6)       
1 44879U 19093A   26195.92324543  .00002029  00000+0  18810-3 0  9992
2 44879  97.7815 279.5638 0010006 329.1712  30.8920 14.95561203356195
ETRSS-1                 
1 44880U 19093B   26195.92189767  .00002165  00000+0  19801-3 0  9993
2 44880  97.7831 280.0464 0010096 329.0680  30.9946 14.96008758356204
TIANYAN 01              
1 44881U 19093C   26195.91174127  .00000483  00000+0  60521-4 0  9994
2 44881  97.7529 267.4666 0013647   2.6760 357.4526 14.86561635355533
TIANYAN 02              
1 44882U 19093D   26195.90380005  .00002636  00000+0  18740-3 0  9995
2 44882  97.7939 290.9661 0012183 289.8277  70.1635 15.05528626356784
CBERS 4A                
1 44883U 19093E   26195.98524610 -.00000072  00000+0 -23356-5 0  9991
2 44883  98.0189 263.4476 0001419 131.3874 228.7461 14.81442573355190
WEILAI 1R               
1 44884U 19093F   26195.99111240  .00001991  00000+0  16104-3 0  9994
2 44884  97.7896 285.9273 0015589 309.2321  50.7518 15.00864797356591
