OBJECT_NAME,OBJECT_ID,EPOCH,MEAN_MOTION,ECCENTRICITY,INCLINATION,RA_OF_ASC_NODE,ARG_OF_PERICENTER,MEAN_ANOMALY,EPHEMERIS_TYPE,CLASSIFICATION_TYPE,NORAD_CAT_ID,ELEMENT_SET_NO,REV_AT_EPOCH,BSTAR,MEAN_MOTION_DOT,MEAN_MOTION_DDOT
PROX-1,2019-036A,2026-07-14T13:32:32.954784,14.91240089,.0005951,23.9954,291.2841,1.0168,359.0343,0,U,44339,999,37756,.61082E-3,.6514E-4,0
NPSAT1,2019-036B,2026-07-14T22:16:37.042464,14.74820760,.00074185,23.9996,37.0454,163.4955,196.5783,0,U,44340,999,37659,.39563276E-3,.2959E-4,0
FORMOSAT 7-3,2019-036E,2026-07-14T19:22:11.632512,15.09992955,.00001445,24.0000,348.4178,225.7106,134.3386,0,U,44343,999,38742,.13444411E-3,.2587E-4,0
FORMOSAT 7-1,2019-036L,2026-07-14T02:48:26.716896,14.96609694,.00009925,23.9965,210.8268,119.0501,241.0100,0,U,44349,999,38869,.87352548E-4,.1323E-4,0
FORMOSAT 7-4,2019-036M,2026-07-14T12:57:01.577376,14.96608631,.00012071,23.9978,270.0878,134.1754,225.8846,0,U,44350,999,38817,.91577322E-4,.1372E-4,0
FORMOSAT 7-2,2019-036N,2026-07-14T13:29:14.011872,14.96607917,.0000725,23.9992,324.2509,126.1449,233.9119,0,U,44351,999,38769,.10275E-3,.1502E-4,0
FORMOSAT 7-6,2019-036Q,2026-07-14T13:28:37.984800,14.96611257,.0001306,23.9966,145.0607,68.3395,291.7245,0,U,44353,999,38592,.96307E-4,.1427E-4,0
FORMOSAT 7-5,2019-036V,2026-07-14T00:08:03.753600,14.96589152,.00004331,23.9985,87.5620,125.4285,234.6256,0,U,44358,999,38637,.10448075E-3,.1521E-4,0
METEOR-M2 2,2019-038A,2026-07-14T23:48:14.456736,14.24372524,.00007561,98.9152,183.6894,3.0534,357.0649,0,U,44387,999,36525,-.45726809E-4,-.152E-5,0
GLOBAL-4,2019-054E,2026-07-14T09:13:39.468576,15.67020519,.00052511,45.0060,79.1632,191.4185,168.6595,0,U,44499,999,38462,.35029508E-3,.3803E-3,0
ZY-1 02D,2019-059A,2026-07-14T22:52:29.997408,14.35267370,.00031375,98.6719,257.5073,300.4075,59.6800,0,U,44528,999,35832,-.49078964E-4,-.186E-5,0
TAURUS-1 (JINNIUZUO 1),2019-059C,2026-07-14T23:19:50.038752,14.72370325,.00080023,98.6429,2.5323,216.1749,143.8916,0,U,44530,999,36273,.63873283E-3,.399E-4,0
ZHUHAI-1 03B,2019-060C,2026-07-14T23:38:42.805824,15.55623340,.00083977,97.5550,355.2883,206.1157,153.9675,0,U,44536,999,38064,.30389302E-3,.20791E-3,0
ZHUHAI-1 03D,2019-060E,2026-07-14T23:22:19.225632,15.51332971,.00074644,97.5396,347.1538,191.8585,168.2492,0,U,44538,999,38038,.34471222E-3,.20195E-3,0
ZHUHAI-1 03E,2019-060F,2026-07-14T23:04:47.088768,15.41917075,.00044016,97.5641,346.8945,277.1886,82.8860,0,U,44539,999,38004,.24878889E-3,.1049E-3,0
GAOFEN-7,2019-072A,2026-07-14T22:54:49.065120,15.21513365,.00174626,97.5706,256.6882,304.8613,55.0980,0,U,44703,999,37186,.93173898E-4,.2032E-4,0
JILIN-1 GAOFEN 2A,2019-075A,2026-07-14T21:16:09.222240,15.40009241,.00052102,97.4968,280.3364,356.1425,3.9780,0,U,44777,999,36914,.20541148E-3,.8114E-4,0
NINGXIA-1 1,2019-076A,2026-07-14T23:19:48.060192,14.02041982,.00115543,45.0066,55.6855,288.6118,71.3461,0,U,44779,999,34175,.39456316E-4,-.69E-6,0
NINGXIA-1 5,2019-076E,2026-07-14T23:37:33.788640,14.02089780,.00114195,45.0065,54.9631,279.4342,80.5202,0,U,44783,999,34167,-.3935433E-5,-.136E-5,0
KL-ALPHA A,2019-077A,2026-07-15T00:17:21.959808,13.56046284,.00124287,88.9233,219.5214,37.2525,322.9489,0,U,44785,999,32950,.23479715E-3,.177E-5,0
CARTOSAT-3,2019-081A,2026-07-14T22:50:19.974048,15.19183501,.00130846,97.4298,257.3696,59.9242,300.3288,0,U,44804,999,36768,.86599344E-4,.1757E-4,0
JILIN-1 GAOFEN 2B,2019-086A,2026-07-14T21:53:51.072288,15.20997513,.00132091,97.4875,267.7330,216.8865,143.1463,0,U,44836,999,36470,.15198439E-3,.3306E-4,0
TIANQIN 1 (CAS-6),2019-093A,2026-07-14T22:09:28.405152,14.95561203,.00100067,97.7815,279.5638,329.1712,30.8920,0,U,44879,999,35619,.18810326E-3,.2029E-4,0
ETRSS-1,2019-093B,2026-07-14T22:07:31.958688,14.96008758,.00100964,97.7831,280.0464,329.0680,30.9946,0,U,44880,999,35620,.19801378E-3,.2165E-4,0
TIANYAN 01,2019-093C,2026-07-14T21:52:54.445728,14.86561635,.00136478,97.7529,267.4666,2.6760,357.4526,0,U,44881,999,35553,.60520748E-4,.483E-5,0
TIANYAN 02,2019-093D,2026-07-14T21:41:28.324320,15.05528626,.00121839,97.7939,290.9661,289.8277,70.1635,0,U,44882,999,35678,.1874016E-3,.2636E-4,0
CBERS 4A,2019-093E,2026-07-14T23:38:45.263040,14.81442573,.00014192,98.0189,263.4476,131.3874,228.7461,0,U,44883,999,35519,-.2335562E-5,-.72E-6,0
WEILAI 1R,2019-093F,2026-07-14T23:47:12.111360,15.00864797,.00155898,97.7896,285.9273,309.2321,50.7518,0,U,44884,999,35659,.16103905E-3,.1991E-4,0
